GLOBALSTAR M004         
1 25163U 98008B   25142.38110692 -.00000058  00000+0  25384-3 0  9994
2 25163  51.9977 132.8786 0002923 235.5403 270.7879 12.63396265258424
GLOBALSTAR M002         
1 25164U 98008C   25142.52020525 -.00000074  00000+0  48388-4 0  9994
2 25164  52.0026 304.5598 0002214 105.1213 254.9852 11.61509943181151
GLOBALSTAR M003         
1 25165U 98008D   25142.54437793 -.00000114  00000+0 -26318-3 0  9990
2 25165  51.9991 239.5436 0007842 238.5754 134.7027 12.12076369230110
GLOBALSTAR M014         
1 25306U 98023A   25142.58591373 -.00000073  00000+0  84238-4 0  9992
2 25306  51.9829 228.1589 0000647 288.1661 216.4657 11.65480738188186
GLOBALSTAR M015         
1 25308U 98023C   25142.40967144 -.00000095  00000+0 -47851-3 0  9992
2 25308  51.9850  17.4013 0013061  31.8886 139.3828 11.48858902191112
